{
  "norad_id": 56826,
  "name": "STARLINK-30114",
  "history": [
    {
      "epoch": "2026-05-03T09:32:47.084352Z",
      "apogee_km": 483.83461090602304,
      "perigee_km": 482.3337873809214,
      "latitude_deg": -2.500475085740523e-06,
      "longitude_deg": 153.5328794945429,
      "height_km": 482.7745525216288,
      "semi_major_axis_km": 6861.2211991434715,
      "eccentricity": 0.00010937,
      "inclination_deg": 42.998,
      "raan_deg": 158.0311,
      "arg_perigee_deg": 276.571,
      "mean_anomaly_deg": 83.5017,
      "mean_motion_rev_day": 15.27568277
    }
  ]
}